SPACEMOBILE-003         
1 61045U 24163A   26191.41571764 -.00000084  00000+0  10927-4 0  9991
2 61045  52.9615 202.6161 0005791 185.1427 174.9508 15.20785714101303
SPACEMOBILE-005         
1 61046U 24163B   26192.45071654  .00003056  00000+0  15155-3 0  9998
2 61046  52.9788 197.8076 0008894 184.8633 175.2276 15.20765383101459
SPACEMOBILE-001         
1 61047U 24163C   26191.06904487  .00000518  00000+0  37895-4 0  9990
2 61047  52.9749 203.8741 0007553 178.7608 181.3406 15.20815495101249
SPACEMOBILE-002         
1 61048U 24163D   26192.03876027  .00008243  00000+0  38281-3 0  9999
2 61048  52.9623 199.4399 0006620 180.9990 179.0992 15.20841812101395
SPACEMOBILE-004         
1 61049U 24163E   26190.57554382 -.00014088  00000+0 -61665-3 0  9992
2 61049  52.9654 205.9666 0008113 207.5207 152.5359 15.20814564101179
SPACEMOBILE-001 DEB     
1 62369U 24163F   26192.40365929  .00006574  00000+0  19955-3 0  9993
2 62369  52.9917 165.3429 0005902 237.9903 122.0525 15.35341282 90224
SPACEMOBILE-002 DEB     
1 62370U 24163G   26191.94819421  .00013010  00000+0  29236-3 0  9990
2 62370  52.9414 151.8855 0004514 272.3236  87.7250 15.43709877102033
SPACEMOBILE-003 DEB     
1 62371U 24163H   26192.30004637  .00012972  00000+0  31402-3 0  9991
2 62371  52.9681 157.0365 0005572 222.3733 137.6840 15.41467427 95600
SPACEMOBILE-004 DEB     
1 62372U 24163J   26192.90045177  .00009790  00000+0  24558-3 0  9990
2 62372  52.9827 153.8168 0002805 248.9133 111.1570 15.40701879 98760
SPACEMOBILE-005 DEB     
1 62373U 24163K   26192.29385405  .00006350  00000+0  19762-3 0  9994
2 62373  52.9722 170.7465 0005857 215.0982 144.9633 15.34606938101829
SPACEMOBILE-006         
1 67232U 25309A   26192.45965029  .00000216  00000+0  25641-4 0  9999
2 67232  52.9930 220.4489 0010403 203.4538 156.5982 15.18647644 30287
SPACEMOBILE-008         
1 69589U 26139A   26192.32103221  .00000086  00000+0  21806-4 0  9996
2 69589  52.9941 152.9965 0004879  47.3692 312.7710 15.12799068  3636
SPACEMOBILE-009         
1 69590U 26139B   26192.91735287 -.00000035  00000+0  15047-4 0  9991
2 69590  52.9934 150.3026 0005154  44.3660 315.7743 15.12692794  3726
SPACEMOBILE-010         
1 69591U 26139C   26192.92010088 -.00000045  00000+0  14514-4 0  9997
2 69591  52.9939 150.3223 0005061  35.8507 324.2823 15.12523875  3731
